1 40378U 15003C   17017.47140063  .00002933  00000-0  12977-3 0  9998
2 40378  99.1083 171.6270 0139763 141.1018 220.0367 15.14405658108191
